[{"OBJECT_NAME":"GAOFEN-5 02","OBJECT_ID":"2021-079A","EPOCH":"2026-03-09T22:28:30.715104","MEAN_MOTION":14.5772301,"ECCENTRICITY":3.379e-5,"INCLINATION":98.2675,"RA_OF_ASC_NODE":143.9335,"ARG_OF_PERICENTER":339.1436,"MEAN_ANOMALY":20.9749,"EPHEMERIS_TYPE":0,"CLASSIFICATION_TYPE":"U","NORAD_CAT_ID":49122,"ELEMENT_SET_NO":999,"REV_AT_EPOCH":23962,"BSTAR":9.830729e-5,"MEAN_MOTION_DOT":4.03e-6,"MEAN_MOTION_DDOT":0},{"OBJECT_NAME":"COSMOS 1900 DEB","OBJECT_ID":"1987-101E","EPOCH":"2026-03-08T22:34:19.170624","MEAN_MOTION":14.60516602,"ECCENTRICITY":0.00282505,"INCLINATION":66.0837,"RA_OF_ASC_NODE":264.0791,"ARG_OF_PERICENTER":161.4368,"MEAN_ANOMALY":269.9922,"EPHEMERIS_TYPE":0,"CLASSIFICATION_TYPE":"U","NORAD_CAT_ID":43500,"ELEMENT_SET_NO":999,"REV_AT_EPOCH":65393,"BSTAR":0.00023255342,"MEAN_MOTION_DOT":1.03e-5,"MEAN_MOTION_DDOT":0}]
